NORAD_CAT_ID,OBJECT_NAME,OBJECT_TYPE,EPOCH,MEAN_MOTION,ECCENTRICITY,INCLINATION,RA_OF_ASC_NODE,ARG_OF_PERICENTER,MEAN_ANOMALY,BSTAR,MEAN_MOTION_DOT,MEAN_MOTION_DDOT,TLE_LINE0,TLE_LINE1,TLE_LINE2,SEMIMAJOR_AXIS,PERIOD,APOGEE,PERIGEE,DECAYED
49761.0,STARLINK-3203,PAYLOAD,2024-03-24 05:33:43,15.08845268,0.0001769,53.2157,110.927,65.6972,294.4205,5.5177e-05,5.9e-06,0.0,0 STARLINK-3203,1 49761U 21115AP  24084.23175077  .00000590  00000-0  55177-4 0  9990,2 49761  53.2157 110.9270 0001769  65.6972 294.4205 15.08845268128778,6917.864,95.437,540.953,538.506,0.0
49761.0,STARLINK-3203,PAYLOAD,2024-03-24 11:55:15,15.08861251,0.0001572,53.2159,109.7445,95.8005,264.3166,0.0005412,8.341e-05,0.0,0 STARLINK-3203,1 49761U 21115AP  24084.49670414  .00008341  00000-0  54120-3 0  9991,2 49761  53.2159 109.7445 0001572  95.8005 264.3166 15.08861251128811,6917.815,95.436,540.768,538.593,0.0
49761.0,STARLINK-3203,PAYLOAD,2024-03-24 18:16:48,15.08840111,0.0002298,53.2164,108.5553,88.1123,272.0132,0.00016199,2.291e-05,0.0,0 STARLINK-3203,1 49761U 21115AP  24084.76167486  .00002291  00000-0  16199-3 0  9993,2 49761  53.2164 108.5553 0002298  88.1123 272.0132 15.08840111128851,6917.88,95.438,541.335,538.155,0.0
49761.0,STARLINK-3203,PAYLOAD,2024-03-25 18:07:35,15.08840107,0.0001491,53.2153,104.0965,98.2139,261.9022,0.0001327,1.825e-05,0.0,0 STARLINK-3203,1 49761U 21115AP  24085.75527743  .00001825  00000-0  13270-3 0  9998,2 49761  53.2153 104.0965 0001491  98.2139 261.9022 15.08840107129008,6917.88,95.438,540.777,538.714,0.0
49761.0,STARLINK-3203,PAYLOAD,2024-03-26 05:15:19,15.08819986,0.0002231,53.216,102.0105,86.5957,273.529,6.6875e-05,7.76e-06,0.0,0 STARLINK-3203,1 49761U 21115AP  24086.21897040  .00000776  00000-0  66875-4 0  9994,2 49761  53.2160 102.0105 0002231  86.5957 273.5290 15.08819986129075,6917.942,95.439,541.35,538.263,0.0
49761.0,STARLINK-3203,PAYLOAD,2024-03-26 10:01:28,15.08823684,0.0001628,53.2158,101.1205,88.7026,271.4153,4.4426e-05,4.19e-06,0.0,0 STARLINK-3203,1 49761U 21115AP  24086.41769120  .00000419  00000-0  44426-4 0  9995,2 49761  53.2158 101.1205 0001628  88.7026 271.4153 15.08823684127997,6917.93,95.439,540.921,538.669,0.0
49761.0,STARLINK-3203,PAYLOAD,2024-03-26 17:58:24,15.08823486,0.0001618,53.2159,99.6335,88.1157,272.0021,0.00020698,3.006e-05,0.0,0 STARLINK-3203,1 49761U 21115AP  24086.74889646  .00003006  00000-0  20698-3 0  9996,2 49761  53.2159  99.6335 0001618  88.1157 272.0021 15.08823486128049,6917.931,95.439,540.915,538.677,0.0
49761.0,STARLINK-3203,PAYLOAD,2024-03-27 08:16:53,15.08834612,0.0001545,53.2153,96.9582,83.613,276.5038,0.00070856,0.00011005,0.0,0 STARLINK-3203,1 49761U 21115AP  24087.34506232  .00011005  00000-0  70856-3 0  9999,2 49761  53.2153  96.9582 0001545  83.6130 276.5038 15.08834612129240,6917.897,95.438,540.831,538.693,0.0
49761.0,STARLINK-3203,PAYLOAD,2024-03-27 17:49:12,15.08848561,0.0001573,53.2154,95.1737,84.3222,275.7949,0.00083433,0.00013018,0.0,0 STARLINK-3203,1 49761U 21115AP  24087.74250024  .00013018  00000-0  83433-3 0  9999,2 49761  53.2154  95.1737 0001573  84.3222 275.7949 15.08848561128198,6917.854,95.437,540.807,538.631,0.0
49761.0,STARLINK-3203,PAYLOAD,2024-03-28 04:56:53,15.08868961,0.0001547,53.2151,93.0918,84.101,276.0159,0.0010366,0.00016261,0.0,0 STARLINK-3203,1 49761U 21115AP  24088.20617240  .00016261  00000-0  10366-2 0  9995,2 49761  53.2151  93.0918 0001547  84.1010 276.0159 15.08868961129371,6917.792,95.436,540.727,538.587,0.0
49761.0,STARLINK-3203,PAYLOAD,2024-03-28 09:43:02,15.0887762,0.0001512,53.215,92.1998,84.5957,275.5207,0.0010911,0.00017137,0.0,0 STARLINK-3203,1 49761U 21115AP  24088.40488733  .00017137  00000-0  10911-2 0  9999,2 49761  53.2150  92.1998 0001512  84.5957 275.5207 15.08877620128294,6917.765,95.435,540.676,538.584,0.0
49761.0,STARLINK-3203,PAYLOAD,2024-03-28 17:39:57,15.08865672,0.000159,53.2152,90.7129,89.0316,271.0858,0.00038152,5.793e-05,0.0,0 STARLINK-3203,1 49761U 21115AP  24088.73608488  .00005793  00000-0  38152-3 0  9999,2 49761  53.2152  90.7129 0001590  89.0316 271.0858 15.08865672129457,6917.802,95.436,540.767,538.567,0.0
49761.0,STARLINK-3203,PAYLOAD,2024-03-29 04:47:39,15.08858711,0.0001726,53.2158,88.6301,102.0316,258.0869,0.00023121,3.395e-05,0.0,0 STARLINK-3203,1 49761U 21115AP  24089.19976075  .00003395  00000-0  23121-3 0  9996,2 49761  53.2158  88.6301 0001726 102.0316 258.0869 15.08858711129529,6917.823,95.436,540.882,538.494,0.0
49761.0,STARLINK-3203,PAYLOAD,2024-03-29 06:23:02,15.08857223,0.000176,53.2162,88.3326,99.3343,260.7848,0.00017134,2.441e-05,0.0,0 STARLINK-3203,1 49761U 21115AP  24089.26600047  .00002441  00000-0  17134-3 0  9995,2 49761  53.2162  88.3326 0001760  99.3343 260.7848 15.08857223128426,6917.828,95.436,540.91,538.475,0.0
49761.0,STARLINK-3203,PAYLOAD,2024-03-30 06:13:49,15.08852897,0.0001467,53.2162,83.872,91.02,269.096,2.7571e-05,1.51e-06,0.0,0 STARLINK-3203,1 49761U 21115AP  24090.25959922  .00000151  00000-0  27571-4 0  9998,2 49761  53.2162  83.8720 0001467  91.0200 269.0960 15.08852897129687,6917.841,95.437,540.721,538.691,0.0
49761.0,STARLINK-3203,PAYLOAD,2024-03-31 06:04:36,15.08846506,0.0001416,53.2158,79.4123,94.3173,265.7981,0.00014681,2.05e-05,0.0,0 STARLINK-3203,1 49761U 21115AP  24091.25320059  .00002050  00000-0  14681-3 0  9999,2 49761  53.2158  79.4123 0001416  94.3173 265.7981 15.08846506129832,6917.861,95.437,540.705,538.746,0.0
49761.0,STARLINK-3203,PAYLOAD,2024-03-31 09:15:22,15.08848586,0.0001383,53.2158,78.8173,93.6497,266.4653,0.00015605,2.197e-05,0.0,0 STARLINK-3203,1 49761U 21115AP  24091.38567911  .00002197  00000-0  15605-3 0  9992,2 49761  53.2158  78.8173 0001383  93.6497 266.4653 15.08848586128747,6917.854,95.437,540.676,538.762,0.0
49761.0,STARLINK-3203,PAYLOAD,2024-03-31 15:36:55,15.08846241,0.000137,53.2157,77.6278,91.4643,268.6506,6.5791e-05,7.59e-06,0.0,0 STARLINK-3203,1 49761U 21115AP  24091.65063860  .00000759  00000-0  65791-4 0  9990,2 49761  53.2157  77.6278 0001370  91.4643 268.6506 15.08846241128785,6917.861,95.437,540.674,538.779,0.0
49761.0,STARLINK-3203,PAYLOAD,2024-04-01 05:55:23,15.08842612,0.0001427,53.2163,74.953,93.6241,266.4915,7.2933e-05,8.73e-06,0.0,0 STARLINK-3203,1 49761U 21115AP  24092.24680061  .00000873  00000-0  72933-4 0  9997,2 49761  53.2163  74.9530 0001427  93.6241 266.4915 15.08842612129985,6917.872,95.437,540.725,538.75,0.0
49761.0,STARLINK-3203,PAYLOAD,2024-04-01 09:06:09,15.08844892,0.0001412,53.2166,74.358,92.1425,267.9729,9.4367e-05,1.214e-05,0.0,0 STARLINK-3203,1 49761U 21115AP  24092.37927918  .00001214  00000-0  94367-4 0  9991,2 49761  53.2166  74.3580 0001412  92.1425 267.9729 15.08844892128899,6917.865,95.437,540.707,538.754,0.0
49761.0,STARLINK-3203,PAYLOAD,2024-04-02 02:35:24,15.08840808,0.0001367,53.2177,71.0881,95.5742,264.5406,4.8693e-05,4.87e-06,0.0,0 STARLINK-3203,1 49761U 21115AP  24093.10792463  .00000487  00000-0  48693-4 0  9990,2 49761  53.2177  71.0881 0001367  95.5742 264.5406 15.08840808130113,6917.878,95.438,540.689,538.797,0.0
49761.0,STARLINK-3203,PAYLOAD,2024-04-02 15:18:29,15.08843554,0.0001378,53.218,68.7092,93.5563,266.5587,4.8583e-05,4.85e-06,0.0,0 STARLINK-3203,1 49761U 21115AP  24093.63784210  .00000485  00000-0  48583-4 0  9995,2 49761  53.2180  68.7092 0001378  93.5563 266.5587 15.08843554129082,6917.87,95.437,540.688,538.781,0.0
49761.0,STARLINK-3203,PAYLOAD,2024-04-03 02:26:12,15.08830997,0.000152,53.219,66.6292,94.8565,265.2601,-8.6055e-06,-4.25e-06,0.0,0 STARLINK-3203,1 49761U 21115AP  24094.10153375 -.00000425  00000-0 -86055-5 0  9993,2 49761  53.2190  66.6292 0001520  94.8565 265.2601 15.08830997130269,6917.908,95.438,540.824,538.721,0.0
49761.0,STARLINK-3203,PAYLOAD,2024-04-03 07:12:21,15.08833158,0.0001543,53.2191,65.7356,95.8639,264.2529,2.2999e-05,7.8e-07,0.0,0 STARLINK-3203,1 49761U 21115AP  24094.30025215  .00000078  00000-0  22999-4 0  9994,2 49761  53.2191  65.7356 0001543  95.8639 264.2529 15.08833158129188,6917.901,95.438,540.834,538.699,0.0
49761.0,STARLINK-3203,PAYLOAD,2024-04-03 15:09:17,15.08842271,0.0001573,53.2193,64.2485,88.3127,271.8045,2.7018e-07,-2.84e-06,0.0,0 STARLINK-3203,1 49761U 21115AP  24094.63144733 -.00000284  00000-0  27018-6 0  9996,2 49761  53.2193  64.2485 0001573  88.3127 271.8045 15.08842271130342,6917.873,95.437,540.827,538.65,0.0
49761.0,STARLINK-3203,PAYLOAD,2024-04-04 15:00:02,15.08872004,0.000125,53.2183,59.7864,99.1871,260.9262,-0.00035425,-5.926e-05,0.0,0 STARLINK-3203,1 49761U 21115AP  24095.62503266 -.00005926  00000-0 -35425-3 0  9993,2 49761  53.2183  59.7864 0001250  99.1871 260.9262 15.08872004129388,6917.783,95.436,540.512,538.783,0.0
49761.0,STARLINK-3203,PAYLOAD,2024-04-05 03:43:08,15.0884726,0.0001304,53.2175,57.4067,91.7696,268.3445,0.00015196,2.132e-05,0.0,0 STARLINK-3203,1 49761U 21115AP  24096.15495911  .00002132  00000-0  15196-3 0  9996,2 49761  53.2175  57.4067 0001304  91.7696 268.3445 15.08847260130576,6917.858,95.437,540.625,538.821,0.0
49761.0,STARLINK-3203,PAYLOAD,2024-04-05 14:50:50,15.08845844,0.0001338,53.2179,55.3268,86.4069,273.7076,0.00010393,1.367e-05,0.0,0 STARLINK-3203,1 49761U 21115AP  24096.61863991  .00001367  00000-0  10393-3 0  9997,2 49761  53.2179  55.3268 0001338  86.4069 273.7076 15.08845844129532,6917.863,95.437,540.653,538.802,0.0
49761.0,STARLINK-3203,PAYLOAD,2024-04-05 21:12:23,15.08841815,0.0001661,53.2191,54.1407,77.3664,282.7514,4.4245e-05,4.16e-06,0.0,0 STARLINK-3203,1 49761U 21115AP  24096.88360492  .00000416  00000-0  44245-4 0  9992,2 49761  53.2191  54.1407 0001661  77.3664 282.7514 15.08841815130686,6917.875,95.437,540.889,538.591,0.0
49761.0,STARLINK-3203,PAYLOAD,2024-04-06 06:44:42,15.08841911,0.0001516,53.2189,52.3523,99.534,260.5823,-1.3517e-05,-5.03e-06,0.0,0 STARLINK-3203,1 49761U 21115AP  24097.28104421 -.00000503  00000-0 -13517-4 0  9992,2 49761  53.2189  52.3523 0001516  99.5340 260.5823 15.08841911129635,6917.875,95.437,540.788,538.691,0.0
